ONEWEB-0037             
1 45440U 20020S   23059.54244600  .00000634  00000+0  17523-2 0  9997
2 45440  87.8796 260.3776 0001648  84.4527 275.6789 13.11418603144814
ONEWEB-0037             
1 45440U 20020S   23059.92393004  .00000478  00000+0  13114-2 0  9990
2 45440  87.8796 260.3014 0001659  84.6803 275.4514 13.11418335144850
ONEWEB-0037             
1 45440U 20020S   23060.83948791  .00000521  00000+0  14331-2 0  9992
2 45440  87.8796 260.1184 0001655  84.1377 275.9939 13.11420002144976
ONEWEB-0037             
1 45440U 20020S   23060.83948791  .00000521  00000+0  14331-2 0  9992
2 45440  87.8796 260.1184 0001655  84.1377 275.9939 13.11420002144987
ONEWEB-0037             
1 45440U 20020S   23061.83134266  .00000366  00000+0  99603-3 0  9990
2 45440  87.8797 259.9203 0001643  83.7412 276.3903 13.11420153145106
ONEWEB-0037             
1 45440U 20020S   23062.06023177  .00000335  00000+0  90863-3 0  9999
2 45440  87.8797 259.8746 0001649  84.1222 276.0094 13.11420513145149
ONEWEB-0037             
1 45440U 20020S   23062.51801116  .00000142  00000+0  36460-3 0  9995
2 45440  87.8797 259.7833 0001629  84.2038 275.9275 13.11420003145197
ONEWEB-0037             
1 45440U 20020S   23062.82319829 -.00000071  00000+0 -23695-3 0  9993
2 45440  87.8797 259.7224 0001618  84.2293 275.9019 13.11418907145233
